RADFXSAT (FOX-1B)       
1 43017U 17073E   24174.61559649  .00005882  00000+0  36800-3 0  9998
2 43017  97.5773  49.9158 0208139 275.6382  82.1137 14.93547379356476
EAGLESAT 1              
1 43018U 17073F   24174.23073154  .00013404  00000+0  64322-3 0  9998
2 43018  97.5961  58.8055 0172366 247.9277 110.3569 15.06774609356856
JILIN-1 04              
1 43022U 17074A   24174.87405079  .00006532  00000+0  29981-3 0  9995
2 43022  97.4881 266.5915 0005199 242.9143 117.1562 15.20743213363398
JILIN-1 05              
1 43023U 17074B   24174.82016073  .00005421  00000+0  25048-3 0  9999
2 43023  97.4906 267.0510 0005231 263.6040  96.4599 15.20592913363395
JILIN-1 06              
1 43024U 17074C   24174.85096284  .00004492  00000+0  22417-3 0  9999
2 43024  97.4900 265.8295 0007900 273.3754  86.6576 15.17994003363322
IRIDIUM 116             
1 43072U 17083C   24174.32008366  .00000014  00000+0 -19172-5 0  9991
2 43072  86.3964 264.9166 0002209  94.9286 265.2162 14.34217627340276
IRIDIUM 130             
1 43073U 17083D   24174.77675014  .00000125  00000+0  37521-4 0  9990
2 43073  86.3971 264.9306 0002307  95.9531 264.1928 14.34217924340283
LKW-2                   
1 43080U 17084A   24174.82041529  .00007520  00000+0  31767-3 0  9994
2 43080  97.2236 235.1119 0003560 171.9807 188.1488 15.23517454361370
SUPERVIEW-1 03          
1 43099U 18002A   24174.79859323  .00017939  00000+0  51481-3 0  9990
2 43099  97.3759 255.0559 0003805  69.4475 290.7177 15.35912553357477
SUPERVIEW-1 04          
1 43100U 18002B   24174.84873738  .00019085  00000+0  52527-3 0  9991
2 43100  97.3781 255.7210 0001688 140.1988 219.9381 15.37211364357507
CARTOSAT-2F             
1 43111U 18004A   24174.83697034  .00006491  00000+0  31066-3 0  9999
2 43111  97.4308 234.2359 0000343 173.7994 186.3245 15.19301262357353
CARBONITE 2             
1 43115U 18004E   24174.77749789  .00014719  00000+0  34303-3 0  9990
2 43115  97.2688 245.8028 0005402 242.5125 117.5574 15.42340663358805
LKW-3                   
1 43146U 18006A   24174.87736166  .00008501  00000+0  35861-3 0  9994
2 43146  97.5732 309.3710 0004816 142.3861 217.7713 15.23540740358162
ASNARO-2                
1 43152U 18007A   24174.73623822  .00013130  00000+0  57003-3 0  9997
2 43152  97.4105 181.3802 0001719  96.7597 263.3835 15.22445046357195
XIAOXIANG-2             
1 43155U 18008A   24174.82332313  .00112186  00000+0  12283-2 0  9994
2 43155  97.2334 228.9526 0004249  92.5293 267.6452 15.62905971355786
ZHOU ENLAI              
1 43156U 18008B   24174.52381082  .00330826  00000+0  16877-2 0  9995
2 43156  97.2337 230.9111 0003293 203.2399 156.8721 15.80492926355799
QUANTUTONG 1            
1 43158U 18008D   24174.69171861  .00049800  00000+0  94032-3 0  9996
2 43158  97.2537 223.3068 0007182  90.9192 269.2882 15.48269988355323
JILIN-1 07              
1 43159U 18008E   24174.86793188  .00005855  00000+0  28216-3 0  9991
2 43159  97.2435 207.8615 0013260 110.7152 249.5506 15.19011221354435
JILIN-1 08              
1 43160U 18008F   24174.87925719  .00005740  00000+0  27892-3 0  9993
2 43160  97.2441 207.5970 0009947 121.3413 238.8796 15.18765250354428
LEMUR-2-URAMCHANSOL     
1 43183U 18014D   24174.26610571  .00016598  00000+0  85946-3 0  9992
2 43183  97.5896  78.9342 0011073 335.5611  24.5095 15.16234393349619
LEMUR-2-KADI            
1 43184U 18014E   24174.32253232  .00010000  00000+0  55880-3 0  9993
2 43184  97.5692  76.9013 0009261 322.3377  37.7205 15.13668670349543
S-NET D                 
1 43186U 18014G   24174.30694131  .00003858  00000+0  27853-3 0  9992
2 43186  97.5912  76.0587 0010262   1.2829 358.8422 15.04647938349277
S-NET B                 
1 43187U 18014H   24174.30922812  .00003954  00000+0  28531-3 0  9994
2 43187  97.5921  76.0109 0010883 356.0466   4.0673 15.04642420349274
S-NET A                 
1 43188U 18014J   24174.30808890  .00003889  00000+0  28067-3 0  9995
2 43188  97.5925  76.1230 0010798 356.6847   3.4306 15.04650002349270
S-NET C                 
1 43189U 18014K   24174.31134885  .00004090  00000+0  29489-3 0  9997
2 43189  97.5946  76.0747 0012213 347.8241  12.2688 15.04646017347821
GOMX-4B                 
1 43196U 18015E   24174.54035514  .00049080  00000+0  51030-3 0  9995
2 43196  97.6055 348.5673 0006639 279.9375  80.1134 15.64441982356363
GOMX-4A                 
1 43197U 18015F   24174.80382293  .00116898  00000+0  69194-3 0  9996
2 43197  97.5951 354.0841 0006431 257.4647 102.5899 15.77723539356766
PAZ                     
1 43215U 18020A   24174.81959106  .00002904  00000+0  14145-3 0  9995
2 43215  97.4445 181.6043 0001718  85.9801 274.1630 15.19143191351042
GOES 17                 
1 43226U 18022A   24174.50155700 -.00000075  00000+0  00000+0 0  9992
2 43226   0.0387 150.2021 0001085 329.7109 227.1107  1.00271447 23161
LKW-4                   
1 43236U 18025A   24174.83980428  .00009458  00000+0  40177-3 0  9991
2 43236  97.5603 307.0855 0002904 164.5451 195.5874 15.23277959348564
ZHUHAI-1 OHS-01         
1 43439U 18040A   24174.84374204  .00042019  00000+0  69687-3 0  9990
2 43439  97.1238 221.7103 0003627 262.6352  97.4489 15.52015322342427
ZHUHAI-1 OVS-02         
1 43440U 18040B   24174.84895883  .00012374  00000+0  45994-3 0  9999
2 43440  97.1193 221.0236 0005850 352.2016   7.9132 15.27650104342350
ZHUHAI-1 OHS-02         
1 43441U 18040C   24174.86799386  .00014200  00000+0  49977-3 0  9998
2 43441  97.1392 224.5915 0011645 308.4246  51.5948 15.29363799342365
ZHUHAI-1 OHS-04         
1 43443U 18040E   24174.83969217  .00036376  00000+0  59061-3 0  9992
2 43443  97.1327 223.1463 0001476 217.6863 142.4287 15.52644398342443
GAOFEN-6                
1 43484U 18048A   24174.86198606  .00001046  00000+0  15719-3 0  9992
2 43484  97.8636 249.0940 0011027   2.6716 357.4551 14.76523390326501
LUOJIA-1 01             
1 43485U 18048B   24174.83500019  .00002496  00000+0  32610-3 0  9994
2 43485  97.8753 253.4785 0009505 340.6653  19.4198 14.81332649326706
PAKTES 1A               
1 43529U 18056A   24174.87606474  .00002527  00000+0  25016-3 0  9995
2 43529  98.0361 297.0968 0023538 354.1237   5.9702 14.92600723323600
PRSS 1                  
1 43530U 18056B   24174.80424809  .00001221  00000+0  17111-3 0  9997
2 43530  97.8645 249.1738 0001289 105.7129 254.4225 14.79252742321222
HAIYANG-1C              
1 43609U 18068A   24174.84065672  .00000221  00000+0  94623-4 0  9993
2 43609  98.6057 243.1638 0010282  84.5428 275.6930 14.34112669303263
SSTL S1-4               
1 43618U 18071A   24174.86303074  .00001053  00000+0  10167-3 0  9994
2 43618  97.6031  61.2044 0007097  70.8834 289.3155 14.94868531314651
HAIYANG-2B              
1 43655U 18081A   24174.86320566  .00000029  00000+0  71066-4 0  9999
2 43655  99.3354 183.2717 0002020  64.7784 295.3578 13.79305519285071
CZ-4B R/B               
1 43656U 18081B   24174.56413906  .00000249  00000+0  92337-4 0  9996
2 43656  99.4436  21.5319 0206199 191.1641 168.4928 14.31242415295621
CFOSAT                  
1 43662U 18083A   24174.88418647  .00004594  00000+0  23910-3 0  9994
2 43662  97.3739 189.3176 0001860 138.5635 221.5739 15.16507374312769
2018-083B               
1 43663U 18083B   24174.84567918  .00060861  00000+0  80856-3 0  9998
2 43663  97.3211 208.1947 0005270 193.6474 166.4640 15.58004536314109
2018-083C               
1 43664U 18083C   24174.82148075  .00024115  00000+0  55591-3 0  9996
2 43664  97.3404 201.7593 0005447 224.7411 135.3398 15.42565276313798
2018-083D               
1 43665U 18083D   24174.81305053  .00025997  00000+0  57973-3 0  9992
2 43665  97.3402 202.7404 0006271 226.3761 133.6968 15.43537923313840
2018-083G               
1 43668U 18083G   24174.86813759  .00098318  00000+0  99987-3 0  9995
2 43668  97.3273 207.9057 0006006 187.7580 172.3587 15.64827841314263
TEN-KOH                 
1 43677U 18084G   24174.49195189  .00002861  00000+0  25967-3 0  9990
2 43677  98.0626 328.1783 0013797   4.3291 355.8046 14.96077430307516
DIWATA-2B               
1 43678U 18084H   24174.82859052  .00001419  00000+0  13424-3 0  9997
2 43678  98.0719 332.9817 0009337  19.9678 340.1906 14.95329728307765
STARS-AO                
1 43679U 18084J   24174.41349507  .00006099  00000+0  46748-3 0  9996
2 43679  98.0557 338.5905 0003086  92.0306 268.1271 15.02218275308051
AUTCUBE 2               
1 43681U 18084K   24174.42907142  .00003462  00000+0  28536-3 0  9991
2 43681  98.0641 335.4846 0007353 349.5785  10.5283 14.99740456307866
METOP-C                 
1 43689U 18087A   24174.84280063  .00000183  00000+0  10393-3 0  9993
2 43689  98.7231 234.0535 0003104  82.0118 278.1411 14.21477471291927
ES'HAIL 2               
1 43700U 18090A   24174.81376512  .00000159  00000+0  00000+0 0  9996
2 43700   0.0151  58.5270 0002116  65.8735 105.8317  1.00272055 20654
TIANPING 1B             
1 43714U 18094E   24174.82640228  .00013345  00000+0  31645-3 0  9998
2 43714  97.3676 193.0368 0006784 241.4311 118.6253 15.41835088311587
MOHAMMED VI-B           
1 43717U 18095A   24174.81259350  .00001096  00000+0  16243-3 0  9990
2 43717  97.9545 246.5430 0001271 125.5693 234.5636 14.77079509301090
HYSIS                   
1 43719U 18096A   24174.80651489  .00001713  00000+0  24000-3 0  9997
2 43719  97.8658 238.5910 0000414  46.3832 313.7414 14.78770064300372
COSMOS 2530             
1 43751U 18097A   24174.81634622  .00000028  00000+0  13245-3 0  9992
2 43751  82.5150 311.8907 0020214 173.5152 186.6193 12.42883371252399
COSMOS 2531             
1 43752U 18097B   24174.84341197  .00000022  00000+0  87127-4 0  9993
2 43752  82.5195 312.6678 0017143 190.2749 169.7983 12.42890531252405
COSMOS 2532             
1 43753U 18097C   24174.87054374  .00000030  00000+0  14411-3 0  9999
2 43753  82.5140 311.7655 0018425 192.9665 167.0943 12.42889711252406
